{"type": "FeatureCollection", "features": [ {"type": "Feature", "properties": {"norad_id": 34375, "name": "IRIDIUM 33 DEB", "group": "iridium-33-debris", "lat": 83.09564390014677, "lon": -142.8424149898979, "alt_km": 798.4369285608564, "timestamp": "2025-12-04T03:47:54.927344+00:00", "meta": {"OBJECT_NAME": "IRIDIUM 33 DEB", "OBJECT_ID": "1997-051FT", "EPOCH": "2025-12-03T01:02:45.120192", "MEAN_MOTION": 14.17964565, "ECCENTRICITY": 0.01024686, "INCLINATION": 86.4333, "RA_OF_ASC_NODE": 186.6042, "ARG_OF_PERICENTER": 157.2608, "MEAN_ANOMALY": 1.3107, "EPHEMERIS_TYPE": 0, "CLASSIFICATION_TYPE": "U", "NORAD_CAT_ID": 34375, "ELEMENT_SET_NO": 999, "REV_AT_EPOCH": 86574, "BSTAR": 0.00052219187, "MEAN_MOTION_DOT": 1.144e-05, "MEAN_MOTION_DDOT": 0}, "tle": {"line1": "1 34375U 97051FT  25337.04357778  .00001144  00000+0  52219-3 0  9996", "line2": "2 34375  86.4333 186.6042 0102468 157.2608   1.3107 14.17964565865748"}}, "geometry": {"type": "Point", "coordinates": [-142.8424149898979, 83.09564390014677]}}, {"type": "Feature", "properties": {"norad_id": 34376, "name": "IRIDIUM 33 DEB", "group": "iridium-33-debris", "lat": 15.014092061141048, "lon": -170.59660871722411, "alt_km": 670.7288848026865, "timestamp": "2025-12-04T03:47:54.927354+00:00", "meta": {"OBJECT_NAME": "IRIDIUM 33 DEB", "OBJECT_ID": "1997-051FU", "EPOCH": "2025-12-03T08:58:52.417920", "MEAN_MOTION": 14.62344728, "ECCENTRICITY": 0.0026089, "INCLINATION": 86.2996, "RA_OF_ASC_NODE": 10.7501, "ARG_OF_PERICENTER": 198.7208, "MEAN_ANOMALY": 161.3047, "EPHEMERIS_TYPE": 0, "CLASSIFICATION_TYPE": "U", "NORAD_CAT_ID": 34376, "ELEMENT_SET_NO": 999, "REV_AT_EPOCH": 87870, "BSTAR": 0.0019889, "MEAN_MOTION_DOT": 0.00010121, "MEAN_MOTION_DDOT": 0}, "tle": {"line1": "1 34376U 97051FU  25337.37421780  .00010121  00000+0  19889-2 0  9998", "line2": "2 34376  86.2996  10.7501 0026089 198.7208 161.3047 14.62344728878702"}}, "geometry": {"type": "Point", "coordinates": [-170.59660871722411, 15.014092061141048]}}, {"type": "Feature", "properties": {"norad_id": 34486, "name": "IRIDIUM 33 DEB", "group": "iridium-33-debris", "lat": 81.84072249602052, "lon": 42.07409389010052, "alt_km": 569.760943942094, "timestamp": "2025-12-04T03:47:54.927364+00:00", "meta": {"OBJECT_NAME": "IRIDIUM 33 DEB", "OBJECT_ID": "1997-051GB", "EPOCH": "2025-12-03T10:02:24.253728", "MEAN_MOTION": 14.95105578, "ECCENTRICITY": 0.0012925, "INCLINATION": 86.3945, "RA_OF_ASC_NODE": 16.3253, "ARG_OF_PERICENTER": 143.3156, "MEAN_ANOMALY": 279.4709, "EPHEMERIS_TYPE": 0, "CLASSIFICATION_TYPE": "U", "NORAD_CAT_ID": 34486, "ELEMENT_SET_NO": 999, "REV_AT_EPOCH": 88847, "BSTAR": 0.0028184, "MEAN_MOTION_DOT": 0.00031064, "MEAN_MOTION_DDOT": 0}, "tle": {"line1": "1 34486U 97051GB  25337.41833627  .00031064  00000+0  28184-2 0  9999", "line2": "2 34486  86.3945  16.3253 0012925 143.3156 279.4709 14.95105578888472"}}, "geometry": {"type": "Point", "coordinates": [42.07409389010052, 81.84072249602052]}}, {"type": "Feature", "properties": {"norad_id": 34487, "name": "IRIDIUM 33 DEB", "group": "iridium-33-debris", "lat": -86.0166122204972, "lon": -50.57807674545972, "alt_km": 765.3474553889, "timestamp": "2025-12-04T03:47:54.927374+00:00", "meta": {"OBJECT_NAME": "IRIDIUM 33 DEB", "OBJECT_ID": "1997-051GC", "EPOCH": "2025-12-03T10:12:00.081216", "MEAN_MOTION": 14.43196495, "ECCENTRICITY": 0.0031908, "INCLINATION": 86.3443, "RA_OF_ASC_NODE": 16.3873, "ARG_OF_PERICENTER": 157.9365, "MEAN_ANOMALY": 266.0119, "EPHEMERIS_TYPE": 0, "CLASSIFICATION_TYPE": "U", "NORAD_CAT_ID": 34487, "ELEMENT_SET_NO": 999, "REV_AT_EPOCH": 88114, "BSTAR": 0.00029137, "MEAN_MOTION_DOT": 1.005e-05, "MEAN_MOTION_DDOT": 0}, "tle": {"line1": "1 34487U 97051GC  25337.42500094  .00001005  00000+0  29137-3 0  9992", "line2": "2 34487  86.3443  16.3873 0031908 157.9365 266.0119 14.43196495881144"}}, "geometry": {"type": "Point", "coordinates": [-50.57807674545972, -86.0166122204972]}}, {"type": "Feature", "properties": {"norad_id": 34488, "name": "IRIDIUM 33 DEB", "group": "iridium-33-debris", "lat": 32.44974546522338, "lon": 127.71197135817567, "alt_km": 484.0533543546844, "timestamp": "2025-12-04T03:47:54.927384+00:00", "meta": {"OBJECT_NAME": "IRIDIUM 33 DEB", "OBJECT_ID": "1997-051GD", "EPOCH": "2025-12-03T16:08:28.294944", "MEAN_MOTION": 15.26132536, "ECCENTRICITY": 0.0015614, "INCLINATION": 86.3246, "RA_OF_ASC_NODE": 310.2938, "ARG_OF_PERICENTER": 65.1971, "MEAN_ANOMALY": 295.0897, "EPHEMERIS_TYPE": 0, "CLASSIFICATION_TYPE": "U", "NORAD_CAT_ID": 34488, "ELEMENT_SET_NO": 999, "REV_AT_EPOCH": 89101, "BSTAR": 0.0060111, "MEAN_MOTION_DOT": 0.00158686, "MEAN_MOTION_DDOT": 0}, "tle": {"line1": "1 34488U 97051GD  25337.67254971  .00158686  00000+0  60111-2 0  9994", "line2": "2 34488  86.3246 310.2938 0015614  65.1971 295.0897 15.26132536891013"}}, "geometry": {"type": "Point", "coordinates": [127.71197135817567, 32.44974546522338]}}, {"type": "Feature", "properties": {"norad_id": 34492, "name": "IRIDIUM 33 DEB", "group": "iridium-33-debris", "lat": -3.7984603109266417, "lon": 158.33354272009714, "alt_km": 790.2664138707669, "timestamp": "2025-12-04T03:47:54.927394+00:00", "meta": {"OBJECT_NAME": "IRIDIUM 33 DEB", "OBJECT_ID": "1997-051GH", "EPOCH": "2025-12-03T10:48:32.343840", "MEAN_MOTION": 14.25280236, "ECCENTRICITY": 0.0190283, "INCLINATION": 86.4711, "RA_OF_ASC_NODE": 338.3846, "ARG_OF_PERICENTER": 268.3385, "MEAN_ANOMALY": 247.4972, "EPHEMERIS_TYPE": 0, "CLASSIFICATION_TYPE": "U", "NORAD_CAT_ID": 34492, "ELEMENT_SET_NO": 999, "REV_AT_EPOCH": 84926, "BSTAR": 0.0085812, "MEAN_MOTION_DOT": 0.00024475, "MEAN_MOTION_DDOT": 0}, "tle": {"line1": "1 34492U 97051GH  25337.45037435  .00024475  00000+0  85812-2 0  9992", "line2": "2 34492  86.4711 338.3846 0190283 268.3385 247.4972 14.25280236849261"}}, "geometry": {"type": "Point", "coordinates": [158.33354272009714, -3.7984603109266417]}}, {"type": "Feature", "properties": {"norad_id": 34497, "name": "IRIDIUM 33 DEB", "group": "iridium-33-debris", "lat": 5.793685453015722, "lon": 56.445407983236926, "alt_km": 745.3331000376338, "timestamp": "2025-12-04T03:47:54.927404+00:00", "meta": {"OBJECT_NAME": "IRIDIUM 33 DEB", "OBJECT_ID": "1997-051GN", "EPOCH": "2025-12-03T06:10:51.201984", "MEAN_MOTION": 14.27408211, "ECCENTRICITY": 0.0079856, "INCLINATION": 86.2784, "RA_OF_ASC_NODE": 56.4516, "ARG_OF_PERICENTER": 10.3771, "MEAN_ANOMALY": 49.8757, "EPHEMERIS_TYPE": 0, "CLASSIFICATION_TYPE": "U", "NORAD_CAT_ID": 34497, "ELEMENT_SET_NO": 999, "REV_AT_EPOCH": 86748, "BSTAR": 0.00083815, "MEAN_MOTION_DOT": 2.144e-05, "MEAN_MOTION_DDOT": 0}, "tle": {"line1": "1 34497U 97051GN  25337.25753706  .00002144  00000+0  83815-3 0  9992", "line2": "2 34497  86.2784  56.4516 0079856  10.3771  49.8757 14.27408211867488"}}, "geometry": {"type": "Point", "coordinates": [56.445407983236926, 5.793685453015722]}}, {"type": "Feature", "properties": {"norad_id": 34508, "name": "IRIDIUM 33 DEB", "group": "iridium-33-debris", "lat": -6.708643905322678, "lon": -73.29202246936124, "alt_km": 722.6734210865743, "timestamp": "2025-12-04T03:47:54.927414+00:00", "meta": {"OBJECT_NAME": "IRIDIUM 33 DEB", "OBJECT_ID": "1997-051GZ", "EPOCH": "2025-12-03T18:34:58.617984", "MEAN_MOTION": 14.38282153, "ECCENTRICITY": 0.0065497, "INCLINATION": 86.3699, "RA_OF_ASC_NODE": 106.4429, "ARG_OF_PERICENTER": 202.0722, "MEAN_ANOMALY": 157.7654, "EPHEMERIS_TYPE": 0, "CLASSIFICATION_TYPE": "U", "NORAD_CAT_ID": 34508, "ELEMENT_SET_NO": 999, "REV_AT_EPOCH": 87180, "BSTAR": 0.0026331, "MEAN_MOTION_DOT": 8.231e-05, "MEAN_MOTION_DDOT": 0}, "tle": {"line1": "1 34508U 97051GZ  25337.77428956  .00008231  00000+0  26331-2 0  9990", "line2": "2 34508  86.3699 106.4429 0065497 202.0722 157.7654 14.38282153871801"}}, "geometry": {"type": "Point", "coordinates": [-73.29202246936124, -6.708643905322678]}}, {"type": "Feature", "properties": {"norad_id": 34521, "name": "IRIDIUM 33 DEB", "group": "iridium-33-debris", "lat": -44.813823161470076, "lon": 30.72082070557111, "alt_km": 688.8502886424685, "timestamp": "2025-12-04T03:47:54.927424+00:00", "meta": {"OBJECT_NAME": "IRIDIUM 33 DEB", "OBJECT_ID": "1997-051HN", "EPOCH": "2025-12-03T14:52:24.138048", "MEAN_MOTION": 14.63228778, "ECCENTRICITY": 0.0001118, "INCLINATION": 86.3812, "RA_OF_ASC_NODE": 34.5626, "ARG_OF_PERICENTER": 291.1888, "MEAN_ANOMALY": 68.9204, "EPHEMERIS_TYPE": 0, "CLASSIFICATION_TYPE": "U", "NORAD_CAT_ID": 34521, "ELEMENT_SET_NO": 999, "REV_AT_EPOCH": 88339, "BSTAR": 0.0014436, "MEAN_MOTION_DOT": 7.457e-05, "MEAN_MOTION_DDOT": 0}, "tle": {"line1": "1 34521U 97051HN  25337.61972382  .00007457  00000+0  14436-2 0  9997", "line2": "2 34521  86.3812  34.5626 0001118 291.1888  68.9204 14.63228778883397"}}, "geometry": {"type": "Point", "coordinates": [30.72082070557111, -44.813823161470076]}}, {"type": "Feature", "properties": {"norad_id": 34525, "name": "IRIDIUM 33 DEB", "group": "iridium-33-debris", "lat": 43.78516326734109, "lon": 53.99093253576488, "alt_km": 743.877041533703, "timestamp": "2025-12-04T03:47:54.927434+00:00", "meta": {"OBJECT_NAME": "IRIDIUM 33 DEB", "OBJECT_ID": "1997-051HS", "EPOCH": "2025-12-03T11:01:10.915104", "MEAN_MOTION": 14.42867248, "ECCENTRICITY": 0.0006435, "INCLINATION": 86.3737, "RA_OF_ASC_NODE": 50.8044, "ARG_OF_PERICENTER": 116.3826, "MEAN_ANOMALY": 258.5151, "EPHEMERIS_TYPE": 0, "CLASSIFICATION_TYPE": "U", "NORAD_CAT_ID": 34525, "ELEMENT_SET_NO": 999, "REV_AT_EPOCH": 87954, "BSTAR": 0.0005736, "MEAN_MOTION_DOT": 1.934e-05, "MEAN_MOTION_DDOT": 0}, "tle": {"line1": "1 34525U 97051HS  25337.45915411  .00001934  00000+0  57360-3 0  9991", "line2": "2 34525  86.3737  50.8044 0006435 116.3826 258.5151 14.42867248879547"}}, "geometry": {"type": "Point", "coordinates": [53.99093253576488, 43.78516326734109]}}]}